0 PEGASUS R/B
1 23106U 94029B   13282.07050702  .00000742  00000-0  11269-3 0  8335
2 23106 081.9615 149.7126 0133586 125.2799 236.0989 14.66771547 34681
0 PEGASUS R/B
1 23106U 94029B   13283.70774958  .00000715  00000-0  10838-3 0  8344
2 23106 081.9612 148.1077 0133631 120.1459 241.3067 14.66775046 34925
0 PEGASUS R/B
1 23106U 94029B   13286.09538579  .00000760  00000-0  11552-3 0  8362
2 23106 081.9606 145.7672 0133664 112.6615 248.8788 14.66777502 35278
0 PEGASUS R/B
1 23106U 94029B   13287.52796263  .00000876  00000-0  13373-3 0  8379
2 23106 081.9603 144.3629 0133653 108.1767 253.4041 14.66779858 35481
0 PEGASUS R/B
1 23106U 94029B   13288.68766390  .00001075  00000-0  16489-3 0  8389
2 23106 081.9601 143.2259 0133643 104.5399 257.0673 14.66783530 35658
0 PEGASUS R/B
1 23106U 94029B   13290.52953624  .00000934  00000-0  14266-3 0  8398
2 23106 081.9600 141.4202 0133637 098.7652 262.8713 14.66788062 35928
0 PEGASUS R/B
1 23106U 94029B   13291.55279433  .00000974  00000-0  14894-3 0  8404
2 23106 081.9600 140.4169 0133637 095.5559 266.0903 14.66789182 36078
0 PEGASUS R/B
1 23106U 94029B   13292.57605064  .00001015  00000-0  15541-3 0  8418
2 23106 081.9600 139.4136 0133618 092.3458 269.3052 14.66790623 36222
0 PEGASUS R/B
1 23106U 94029B   13293.66752178  .00000988  00000-0  15121-3 0  8421
2 23106 081.9600 138.3434 0133598 088.9208 272.7299 14.66793163 36382
0 PEGASUS R/B
1 23106U 94029B   13295.50937394  .00000979  00000-0  14984-3 0  8438
2 23106 081.9600 136.5376 0133561 083.1397 278.4981 14.66796908 36654
